name,latitude,longitude,address
Emporium Melbourne,-37.812214,144.963785,"287 Lonsdale St, Melbourne VIC 3000"
Royal Arcade,-37.814368,144.964103,"335 Bourke St, Melbourne VIC 3000"
The Clarendon Centre,-37.832392,144.960793,"261 Clarendon St, South Melbourne VIC 3205"
Melbourne Central,-37.810421,144.962962,"211 La Trobe St, Melbourne VIC 3000"
Homeplus+ Homemaker Centre,-37.877474,145.092644,"675-685 Warrigal Rd, Chadstone VIC 3148"
Barkly Square Shopping Centre,-37.775666,144.960872,"90-106 Sydney Rd, Brunswick VIC 3056"
Warringal Shopping Centre,-37.755783,145.068742,"56 Burgundy St, Heidelberg VIC 3084"
M-City,-37.920697,145.14038,"Cnr Dandenong and Blackburn Rds, M City Display Suite, Clayton VIC 3168"
Qv,-37.810806,144.96546,"3 Albert Coates La, Melbourne VIC 3000"
Moonee Ponds Central,-37.765996,144.922828,"14-16 Hall St, Moonee Ponds VIC 3039"
Springvale Homemaker Centre,-37.927701,145.14353,"917 Princes Hwy, Springvale VIC 3171"
Stockland Point Cook,-37.883294,144.735141,"Murnong St, Point Cook VIC 3030"
The Glen,-37.876263,145.165165,"235 Springvale Rd, Glen Waverley VIC 3150"
Highpoint Shopping Centre,-37.77288,144.888957,"200 Rosamond Rd, Maribyrnong VIC 3032"
Melbourne's GPO,-37.813841,144.963386,"350 Bourke St, Melbourne VIC 3000"
Burwood One Shopping Centre,-37.853603,145.149925,"210 Burwood Hwy, Burwood East VIC 3151"
Eastland,-37.813354,145.228914,"175 Maroondah Hwy, Ringwood VIC 3134"
Tunstall Square,-37.791213,145.171874,
Crown Entertainment Complex,-37.823345,144.957943,"8 Whiteman St, Southbank VIC 3006"
Westfield Southland,-37.958519,145.053721,"1239 Nepean Hwy, Cheltenham VIC 3192"
Westfield Knox,-37.868995,145.240171,"425 Burwood Hwy, Wantirna South VIC 3152"
Watervale Shopping Centre,-37.723217,144.751621,"2-14 Calder Park Dr (at Calder Park Drive), Taylors Hill VIC 3037"
Victoria Gardens Shopping Centre,-37.812202,145.010886,"620 Victoria St, Richmond VIC 3121"
Northland Shopping Centre,-37.738658,145.029539,"50 Murray Rd, Preston VIC 3072"
Summerhill Shopping Centre,-37.724707,145.028654,"850 Plenty Rd, Reservoir VIC 3073"
Westfield Fountain Gate,-38.017539,145.304087,"352 Princes Hwy, Narre Warren VIC 3805"
The District Docklands,-37.813769,144.938325,"440 Docklands Dr, Docklands VIC 3008"
Roxburgh Village,-37.639439,144.93238,"250 Somerton Rd, Roxburgh Park VIC 3064"
South Melbourne Central,-37.830794,144.957184,"111 Cecil St, South Melbourne VIC 3205"
Target Centre,-37.812738,144.966133,"253-267 Bourke St, Melbourne VIC 3000"
Craigieburn Central,-37.593154,144.913727,"330 Craigieburn Rd, Craigieburn VIC 3064"
Collins Place,-37.81415,144.972441,"45 Collins St, Melbourne VIC 3000"
Home HQ Nunawading,-37.818991,145.179699,"372-394 Whitehorse Rd, Nunawading VIC 3131"
Stockland Highlands,-37.574923,144.919329,"Aitken Bvd, Craigieburn VIC 3064"
Waverley Gardens Shopping Centre,-37.935546,145.19017,"271 Police Rd, Mulgrave VIC 3170"
Collins234 Boutique Place,-37.815457,144.965763,"234 Collins St, Melbourne VIC 3000"
Galleria,-37.814809,144.962907,"385 Bourke St, Melbourne VIC 3000"
Midtown Melbourne,-37.813154,144.965682,"Cnr Bourke & Swanston Sts, Melbourne VIC 3000"
Capitol Theatre,-37.815106,144.966182,"113 Swanston St, Melbourne VIC 3000"
206 Bourke Street,-37.812813,144.967073,"206 Bourke St, Melbourne VIC 3000"
Pacific Epping,-37.653915,145.018461,"571-583 High St, Epping VIC 3076"
Box Hill Central,-37.818401,145.121976,"1 Main St, Box Hill VIC 3128"
Westfield,-37.651251,145.071808,"415 McDonalds Rd, Mill Park VIC 3082"
Broadmeadows Central,-37.679888,144.919585,"1169 Pascoe Vale Rd, Broadmeadows VIC 3047"
North Blackburn Shopping Centre,-37.812112,145.152779,"104 Springfield Rd, Blackburn VIC 3130"
670 Chapel,-37.837411,144.99637,"670 Chapel St, South Yarra VIC 3141"
Oakleigh Central,-37.900929,145.090348,"39 Hanover St, Oakleigh VIC 3166"
Sanctuary Lakes Shopping Centre,-37.895635,144.753127,"300 Point Cook Rd, Point Cook VIC 3030"
Woodgrove Shopping Centre,-37.68591,144.564439,"533-555 High St, Melton VIC 3337"
Campbellfield Plaza,-37.688549,144.959467,"Hume Hwy & Mahoney's Rd, Campbellfield VIC 3061"
Footscray Plaza Pharmacy,-37.800978,144.897658,"7 Footscray Plaza, Footscray VIC 3011"
Sushi Sushi Malvern Central,-37.862927,145.027187,"110-122 Wattletree Rd, Malvern VIC 3144"
The Jam Factory,-37.842617,144.996073,"500 Chapel St, South Yarra VIC 3141"
Pacific Werribee,-37.875789,144.680244,"Derrimut Rd, Hoppers Crossing VIC"
Riverdale Village Shopping Centre,-37.834432,144.651458,"200 Hummingbird Bvd, Tarneit VIC 3029"
Boardwalk Central Shopping Centre,-37.892851,144.728493,"48-56 Tom Roberts Pde (Boardwalk Boulevard), Point Cook VIC 3030"
Central Square Shopping Centre,-37.871171,144.772034,"1 Central Ave, Altona Meadows VIC 3028"
Watergardens,-37.699808,144.77588,"399 Melton Hwy, Taylors Lakes VIC 3038"
Hogans Corner Shopping Centre,-37.862001,144.686157,"262-264 Derrimu Rd, Hoppers Crossing VIC 3029"
Alma Ave Fish & Chips & Pizza Shop,-37.868959,144.783396,"42 Alma Ave, Altona Meadows VIC 3028"
Hoppers Crossing Shopping Centre,-37.881148,144.703667,"50 Old Geelong Rd, Hoppers Crossing VIC 3029"
Wyndham Village Shopping Centre,-37.849521,144.705204,"380 Sayers Rd, Tarneit VIC 3029"
Food Works - Dallas Shopping Centre,-37.672664,144.930643,"Blair St, Dallas VIC 3047"
Cobblebank Village Shopping Centre,-37.71393,144.60188,"Ferris Rd (Coach Rd), Cobblebank VIC 3338"
Caroline Centre Central,-37.732457,144.741592,"13-19 Lake St, Caroline Springs VIC 3023"
Westfield,-37.713876,144.885579,"29-35 Louis St, Airport West VIC 3042"
Derrimut Village Shopping Centre,-37.783507,144.771521,"20 Mount Derrimut Rd, Deer Park VIC 3023"
Greenvale Shopping Centre,-37.639382,144.881909,"1 Greenvale Dr, Greenvale VIC 3059"
Taylors Hill Village,-37.71079,144.740961,"Taylors Hill Bvd, Taylors Hill VIC 3037"
Delahey Village,-37.726145,144.780768,"Taylors Rd (at Taylors Rd), Delahey VIC 3037"
TSG Westfield Geelong,-38.146505,144.362627,"95 Malop St, Geelong VIC 3220"
Home Consortium Braybrook,-37.778286,144.850845,"330 Ballarat Rd, Braybrook VIC 3019"
Western Gateway Centre,-37.824166,144.881989,"377 Williamstown Rd, Yarraville VIC 3013"
Braybrook Shopping Centre,-37.781713,144.86413,"227 Ballarat Rd, Braybrook VIC 3019"
The Centreway Deli,-37.7333,144.866667,"13 Centreway (Wyong St), VIC 3033"
Niddrie Central Lotto,-37.737655,144.892671,"383 Keilor Rd, Essendon VIC 3040"
Wantirna Mall,-37.847272,145.233171,"348 Mountain Hwy, Wantirna VIC 3152"
Jackson Court Shopping Centre,-37.787907,145.148824,"898 Doncaster Rd, Doncaster East VIC 3109"
University Hill Town Centre,-37.682189,145.070707,"2 Janefield Dr, Bundoora VIC 3083"
St Helena Market Place,-37.684972,145.135786,"214 Aqueduct Rd, St Helena VIC 3088"
Springvale Central,-37.951101,145.151804,"268-274 Springvale Rd, Springvale VIC 3171"
Lilydale Marketplace,-37.760038,145.348654,"33-45 Hutchinson St, Lilydale VIC 3140"
Springvale Shopping Centre,-37.950585,145.150998,"46-58 Buckingham Ave, Springvale VIC 3171"
Mountain Gate Shopping Centre,-37.883837,145.275515,"1880 Ferntree Gully Rd, Ferntree Gully VIC 3156"
Wellington Village Shopping Centre,-37.928176,145.252392,"1100 Wellington Rd, Rowville VIC 3178"
Stockland the Pines,-37.76204,145.16873,"181 Reynolds Rd, Doncaster East VIC 3109"
Chirnside Park Shopping Centre,-37.757159,145.312863,"239-241 Maroondah Hwy, Chirnside Park VIC 3116"
Endeavour Hills Shopping Centre,-37.976771,145.259229,"Cnr Heatherton Rd & Matthew Flinders Ave (At Matthew Flinders Ave.), Endeavour Hills VIC 3802"
Ringwood Square Shopping Centre,-37.815785,145.221608,"59-65 Maroondah Hwy (at whitehorse rd), Ringwood VIC 3134"
Merrindale Shopping Centre,-37.814397,145.287548,"Dorset Rd, Croydon South VIC 3136"
Stud Park Shopping Centre,-37.92055,145.236729,"Cnr Stud & Fulham Rds (at Fulham Rd.), Rowville VIC 3178"
Heathmont Village,-37.828651,145.24616,"Canterbury Rd, Heathmont VIC 3135"
Dentist Boronia,-37.862428,145.286772,"5-7 Chandler Rd, Boronia VIC 3155"
Greensborough Plaza,-37.702811,145.102598,"25 Main St, Greensborough VIC 3088"
Studfield Shopping Strip,-37.860206,145.240338,"217 Stud Rd, Wantirna South VIC 3152"
Mitcham Shopping Centre,-37.815556,145.192553,"Britannia Mall & Victoria Ave, Mitcham VIC 3132"
Healesville Walk Shopping Centre,-37.652781,145.518235,"251 Maroondah Hwy, Healesville VIC 3777"
Scoresby Village,-37.898469,145.231778,"Ferntree Gully Rd (Dandenong Valley Hwy), Scoresby VIC 3179"
Brentford Square,-37.837321,145.184441,"500 Canterbury Rd, Forest Hill VIC 3131"
Macedon Plaza Pharmacy,-37.773044,145.113476,"325 Manningham Rd, Templestowe Lower VIC 3107"
Village Avenue Shops,-37.781839,145.109546,"Village Ave (High Street), Doncaster VIC 3108"
Dandenong Plaza,-37.986715,145.217419,"Cnr Mccrae & Walker Sts, Dandenong VIC 3175"
Burwood Brickworks Shopping Centre,-37.849063,145.133823,"70 Middleborough Rd, Burwood VIC 3151"
Wheelers Hill Shopping Centre,-37.910003,145.189387,"Jells Rd, Wheelers Hill VIC 3150"
Greythorn Village,-37.788671,145.096728,"Doncaster Rd, Balwyn North VIC 3104"
Brandon Park Shopping Centre,-37.905417,145.162608,"Ferntree Gully Rd, Wheelers Hill VIC 3150"
Polaris 3083 Town Centre,-37.712952,145.047804,"1140 Plenty Rd (Jalileo Gwy), Bundoora VIC 3083"
The Terrace Shopping Centre,-37.978164,145.2614,"2 Raymond McMahon Bvd, Endeavour Hills VIC 3802"
Langwarrin Plaza,-38.142468,145.209149,"385 Cranbourne-Frankston Rd, Langwarrin VIC 3910"
Centro Mornington,-38.21861,145.039465,"78 Barkly St, Mornington VIC 3931"
The Avenue Village Shopping Centre,-38.085855,145.317424,"Cnr William Thwaites Bvd & Thompsons Rd, Cranbourne North VIC 3977"
Woolworths,-38.152987,145.165641,"Karingal Hub, Cnr Cranbourne Rd & Karingal Dr, Frankston VIC 3199"
Mornington Village Shopping Centre,-38.223527,145.040623,"241 Main St, Mornington VIC 3931"
Mornington Town Centre,-38.221115,145.039365,"Main St, Mornington VIC 3931"
Carrum Downs Regional Shopping Centre,-38.101952,145.185093,"100 Hall Rd, Carrum Downs VIC 3201"
Centro Somerville,-38.224473,145.170012,"49 Eramosa Rd, Somerville VIC 3912"
Somerville Plaza Travel,-38.224215,145.17227,"17 Eramosa Rd, Somerville VIC 3912"
Frankston Home Maker Centre,-38.148614,145.137852,"87 Cranbourne Rd, Frankston VIC 3199"
Beach Street Pharmacy,-38.147664,145.145116,"227 Beach St, Frankston VIC 3199"
Bayside Shopping Centre,-38.140933,145.124636,"28 Beach St, Frankston VIC 3199"
Rosebud Plaza,-38.361034,144.891611,"37 McCombe St, Rosebud VIC 3939"
Clarinda Shopping Centre,-37.940957,145.103846,"67 Bourke Rd, Melbourne VIC 3169"
McCrae Plaza,-38.35138,144.922628,"739 Point Nepean Rd, Rosebud VIC 3938"
The Local Village,-38.088637,145.182846,"1095 Frankston-Dandenong Rd, Carrum Downs VIC 3201"
Chelsea Beach Arcade,-38.053175,145.116186,"426 Nepean Hwy, Chelsea VIC 3196"
Parkmore Shopping Centre,-37.992725,145.173129,"317 Cheltenham Rd, Keysborough VIC 3173"
Cranbourne Homemaker Center,-38.082426,145.276515,"Cnr S Gippsland Hwy & Thompsons Rd (Thompsons Rd), Cranbourne VIC 3977"
Thompson Parkway Shopping Centre,-38.081531,145.277938,"Thompsons Rd, Cranbourne North VIC 3977"
Shopping on Clyde,-38.118847,145.320139,"280 Berwick-Cranbourne Rd, Cranbourne East VIC 3977"
The Beaumaris Concourse,-37.985743,145.033617,"Reserve Rd, Beaumaris VIC 3193"
Kingston Central Plaza,-37.970843,145.09159,"288 Centre Dandenong Rd, Moorabbin VIC 3194"
Athol Road Medical Centre,-37.971007,145.149154,"175 Athol Rd (Mackay street), Springvale South VIC 3172"
Sorrento Village,-38.339189,144.741439,"Ocean Beach Rd, Sorrento VIC"
Parkhill Plaza,-38.014059,145.323191,"215-225 Parkhill Dr, Berwick VIC 3806"
The Links,-37.922128,145.083291,"342-356 Warrigal Rd, Bentleigh East VIC 3165"
Clayton Shopping Centre,-37.922092,145.128757,"Clayton Rd, Clayton VIC 3168"
Narre Warren North Village Centre,-37.980757,145.316789,"1C Oakview Bvd, Narre Warren North VIC 3804"
Arena Shopping Centre,-38.064437,145.435051,"Princes Hwy & Cardinia Rd, Officer VIC 3809"
Village Lakeside Shopping Centre,-38.063514,145.455448,"9 Lakeside Bvd, Pakenham VIC 3810"
Heritage Springs Shopping Centre,-38.085303,145.471244,"173-175 McGregor Rd, Pakenham VIC 3810"
Hampton Park Shopping Centre,-38.032715,145.266208,"Somerville Rd, Hampton Park VIC 3976"
